{
    "links": {
        "self": "http://www.neowsapp.com/rest/v1/neo/3781403?api_key=iIulBulltgU6a56xZRHN4H3l9WmuAYTsLGpBGhQ2"
    },
    "id": "3781403",
    "neo_reference_id": "3781403",
    "name": "(2017 RG2)",
    "designation": "2017 RG2",
    "nasa_jpl_url": "http://ssd.jpl.nasa.gov/sbdb.cgi?sstr=3781403",
    "absolute_magnitude_h": 24.4,
    "estimated_diameter": {
        "kilometers": {
            "estimated_diameter_min": 0.0350392641,
            "estimated_diameter_max": 0.0783501764
        },
        "meters": {
            "estimated_diameter_min": 35.0392641108,
            "estimated_diameter_max": 78.3501764334
        },
        "miles": {
            "estimated_diameter_min": 0.0217723826,
            "estimated_diameter_max": 0.0486845275
        },
        "feet": {
            "estimated_diameter_min": 114.9582192654,
            "estimated_diameter_max": 257.0543928497
        }
    },
    "is_potentially_hazardous_asteroid": false,
    "close_approach_data": [
        {
            "close_approach_date": "2014-11-27",
            "close_approach_date_full": "2014-Nov-27 20:59",
            "epoch_date_close_approach": 1417121940000,
            "relative_velocity": {
                "kilometers_per_second": "15.3859990336",
                "kilometers_per_hour": "55389.5965208416",
                "miles_per_hour": "34416.9412381862"
            },
            "miss_distance": {
                "astronomical": "0.2694084297",
                "lunar": "104.7998791533",
                "kilometers": "40302927.243164739",
                "miles": "25043077.7259578382"
            },
            "orbiting_body": "Earth"
        },
        {
            "close_approach_date": "2017-09-19",
            "close_approach_date_full": "2017-Sep-19 18:35",
            "epoch_date_close_approach": 1505846100000,
            "relative_velocity": {
                "kilometers_per_second": "8.4287728242",
                "kilometers_per_hour": "30343.5821672099",
                "miles_per_hour": "18854.3219305089"
            },
            "miss_distance": {
                "astronomical": "0.0201790546",
                "lunar": "7.8496522394",
                "kilometers": "3018743.586773702",
                "miles": "1875760.2846610076"
            },
            "orbiting_body": "Earth"
        }
    ],
    "orbital_data": {
        "orbit_id": "4",
        "orbit_determination_date": "2017-09-21 06:20:43",
        "first_observation_date": "2017-09-08",
        "last_observation_date": "2017-09-20",
        "data_arc_in_days": 12,
        "observations_used": 33,
        "orbit_uncertainty": "7",
        "minimum_orbit_intersection": ".00603177",
        "jupiter_tisserand_invariant": "3.618",
        "epoch_osculation": "2459000.5",
        "eccentricity": ".5141256297245792",
        "semi_major_axis": "2.042150462176076",
        "inclination": "5.416661371640535",
        "ascending_node_longitude": "1.396658251268962",
        "orbital_period": "1065.933306145562",
        "perihelion_distance": ".9922285698174603",
        "perihelion_argument": "18.88679272586396",
        "aphelion_distance": "3.09207235453469",
        "perihelion_time": "2459100.335042121929",
        "mean_anomaly": "326.2824916374399",
        "mean_motion": ".3377321994954522",
        "equinox": "J2000",
        "orbit_class": {
            "orbit_class_type": "APO",
            "orbit_class_description": "Near-Earth asteroid orbits which cross the Earth’s orbit similar to that of 1862 Apollo",
            "orbit_class_range": "a (semi-major axis) > 1.0 AU; q (perihelion) < 1.017 AU"
        }
    },
    "is_sentry_object": false
}